[
  {
    "OBJECT_NAME": "STARLINK-1716",
    "OBJECT_ID": "20073C",
    "EPOCH": "2025-11-11T08:00:03.000384",
    "MEAN_MOTION": 15.37384303,
    "ECCENTRICITY": 0.0006539,
    "INCLINATION": 53.054,
    "RA_OF_ASC_NODE": 48.4495,
    "ARG_OF_PERICENTER": 345.3111,
    "MEAN_ANOMALY": 190.3546,
    "EPHEMERIS_TYPE": 0,
    "CLASSIFICATION_TYPE": "U",
    "NORAD_CAT_ID": 46672,
    "ELEMENT_SET_NO": 999,
    "REV_AT_EPOCH": 581,
    "BSTAR": 0.0011807,
    "MEAN_MOTION_DOT": 0.00043796,
    "MEAN_MOTION_DDOT": 0.0,
    "TLE_LINE1": "1 46672U 20073C   25315.33336806  .00043796  00000+0  11807-2 0  9992",
    "TLE_LINE2": "2 46672  53.0540  48.4495 0006539 345.3111 190.3546 15.37384303  5818",
    "COMMENT": "Grouped by shell and plane from TLE"
  },
  {
    "OBJECT_NAME": "STARLINK-1799",
    "OBJECT_ID": "20073AF",
    "EPOCH": "2025-11-11T08:00:03.000384",
    "MEAN_MOTION": 15.41135674,
    "ECCENTRICITY": 0.0003153,
    "INCLINATION": 53.0548,
    "RA_OF_ASC_NODE": 49.2838,
    "ARG_OF_PERICENTER": 355.3176,
    "MEAN_ANOMALY": 290.0038,
    "EPHEMERIS_TYPE": 0,
    "CLASSIFICATION_TYPE": "U",
    "NORAD_CAT_ID": 46699,
    "ELEMENT_SET_NO": 999,
    "REV_AT_EPOCH": 580,
    "BSTAR": 0.0027962,
    "MEAN_MOTION_DOT": 0.00119052,
    "MEAN_MOTION_DDOT": 0.0,
    "TLE_LINE1": "1 46699U 20073AF  25315.33336806  .00119052  00000+0  27962-2 0  9999",
    "TLE_LINE2": "2 46699  53.0548  49.2838 0003153 355.3176 290.0038 15.41135674  5809",
    "COMMENT": "Grouped by shell and plane from TLE"
  },
  {
    "OBJECT_NAME": "STARLINK-1801",
    "OBJECT_ID": "20073AH",
    "EPOCH": "2025-11-11T08:00:03.000384",
    "MEAN_MOTION": 15.39833738,
    "ECCENTRICITY": 0.0002296,
    "INCLINATION": 53.0546,
    "RA_OF_ASC_NODE": 49.7783,
    "ARG_OF_PERICENTER": 359.6547,
    "MEAN_ANOMALY": 192.705,
    "EPHEMERIS_TYPE": 0,
    "CLASSIFICATION_TYPE": "U",
    "NORAD_CAT_ID": 46701,
    "ELEMENT_SET_NO": 999,
    "REV_AT_EPOCH": 581,
    "BSTAR": 0.0028466999999999998,
    "MEAN_MOTION_DOT": 0.00116041,
    "MEAN_MOTION_DDOT": 0.0,
    "TLE_LINE1": "1 46701U 20073AH  25315.33336806  .00116041  00000+0  28467-2 0  9999",
    "TLE_LINE2": "2 46701  53.0546  49.7783 0002296 359.6547 192.7050 15.39833738  5817",
    "COMMENT": "Grouped by shell and plane from TLE"
  },
  {
    "OBJECT_NAME": "STARLINK-1814",
    "OBJECT_ID": "20073AU",
    "EPOCH": "2025-11-11T06:12:07.846560",
    "MEAN_MOTION": 15.4216756,
    "ECCENTRICITY": 0.0008695,
    "INCLINATION": 53.0549,
    "RA_OF_ASC_NODE": 44.3893,
    "ARG_OF_PERICENTER": 319.7511,
    "MEAN_ANOMALY": 40.2849,
    "EPHEMERIS_TYPE": 0,
    "CLASSIFICATION_TYPE": "U",
    "NORAD_CAT_ID": 46712,
    "ELEMENT_SET_NO": 999,
    "REV_AT_EPOCH": 27940,
    "BSTAR": 0.0029032999999999997,
    "MEAN_MOTION_DOT": 0.00128241,
    "MEAN_MOTION_DDOT": 0.0,
    "TLE_LINE1": "1 46712U 20073AU  25315.25842415  .00128241  00000+0  29033-2 0  9995",
    "TLE_LINE2": "2 46712  53.0549  44.3893 0008695 319.7511  40.2849 15.42167560279400",
    "COMMENT": "Grouped by shell and plane from TLE"
  },
  {
    "OBJECT_NAME": "STARLINK-1815",
    "OBJECT_ID": "20073AV",
    "EPOCH": "2025-11-11T08:00:03.000384",
    "MEAN_MOTION": 15.34986858,
    "ECCENTRICITY": 0.0004924,
    "INCLINATION": 53.0555,
    "RA_OF_ASC_NODE": 49.6786,
    "ARG_OF_PERICENTER": 349.1265,
    "MEAN_ANOMALY": 357.2852,
    "EPHEMERIS_TYPE": 0,
    "CLASSIFICATION_TYPE": "U",
    "NORAD_CAT_ID": 46713,
    "ELEMENT_SET_NO": 999,
    "REV_AT_EPOCH": 580,
    "BSTAR": 0.0028549,
    "MEAN_MOTION_DOT": 0.00099237,
    "MEAN_MOTION_DDOT": 0.0,
    "TLE_LINE1": "1 46713U 20073AV  25315.33336806  .00099237  00000+0  28549-2 0  9990",
    "TLE_LINE2": "2 46713  53.0555  49.6786 0004924 349.1265 357.2852 15.34986858  5807",
    "COMMENT": "Grouped by shell and plane from TLE"
  },
  {
    "OBJECT_NAME": "STARLINK-4646",
    "OBJECT_ID": "22107AP",
    "EPOCH": "2025-11-11T08:00:03.000384",
    "MEAN_MOTION": 15.53567313,
    "ECCENTRICITY": 0.0001249,
    "INCLINATION": 53.1986,
    "RA_OF_ASC_NODE": 41.063,
    "ARG_OF_PERICENTER": 11.795,
    "MEAN_ANOMALY": 283.1043,
    "EPHEMERIS_TYPE": 0,
    "CLASSIFICATION_TYPE": "U",
    "NORAD_CAT_ID": 53737,
    "ELEMENT_SET_NO": 999,
    "REV_AT_EPOCH": 587,
    "BSTAR": 0.0028901,
    "MEAN_MOTION_DOT": 0.00191297,
    "MEAN_MOTION_DDOT": 0.0,
    "TLE_LINE1": "1 53737U 22107AP  25315.33336806  .00191297  00000+0  28901-2 0  9995",
    "TLE_LINE2": "2 53737  53.1986  41.0630 0001249  11.7950 283.1043 15.53567313  5872",
    "COMMENT": "Grouped by shell and plane from TLE"
  },
  {
    "OBJECT_NAME": "STARLINK-30316",
    "OBJECT_ID": "23124L",
    "EPOCH": "2025-11-10T14:56:58.558272",
    "MEAN_MOTION": 15.30199108,
    "ECCENTRICITY": 0.0001021,
    "INCLINATION": 53.1625,
    "RA_OF_ASC_NODE": 40.1312,
    "ARG_OF_PERICENTER": 112.9067,
    "MEAN_ANOMALY": 247.2041,
    "EPHEMERIS_TYPE": 0,
    "CLASSIFICATION_TYPE": "U",
    "NORAD_CAT_ID": 57673,
    "ELEMENT_SET_NO": 999,
    "REV_AT_EPOCH": 12533,
    "BSTAR": 6.102e-05,
    "MEAN_MOTION_DOT": 1.449e-05,
    "MEAN_MOTION_DDOT": 0.0,
    "TLE_LINE1": "1 57673U 23124L   25314.62289998  .00001449  00000+0  61020-4 0  9998",
    "TLE_LINE2": "2 57673  53.1625  40.1312 0001021 112.9067 247.2041 15.30199108125334",
    "COMMENT": "Grouped by shell and plane from TLE"
  },
  {
    "OBJECT_NAME": "STARLINK-30331",
    "OBJECT_ID": "23131J",
    "EPOCH": "2025-11-11T06:26:06.971136",
    "MEAN_MOTION": 15.27582339,
    "ECCENTRICITY": 7.21e-05,
    "INCLINATION": 43.0024,
    "RA_OF_ASC_NODE": 48.1837,
    "ARG_OF_PERICENTER": 273.053,
    "MEAN_ANOMALY": 87.0239,
    "EPHEMERIS_TYPE": 0,
    "CLASSIFICATION_TYPE": "U",
    "NORAD_CAT_ID": 57740,
    "ELEMENT_SET_NO": 999,
    "REV_AT_EPOCH": 12266,
    "BSTAR": 0.00010091000000000001,
    "MEAN_MOTION_DOT": 2.516e-05,
    "MEAN_MOTION_DDOT": 0.0,
    "TLE_LINE1": "1 57740U 23131J   25315.26813624  .00002516  00000+0  10091-3 0  9998",
    "TLE_LINE2": "2 57740  43.0024  48.1837 0000721 273.0530  87.0239 15.27582339122660",
    "COMMENT": "Grouped by shell and plane from TLE"
  },
  {
    "OBJECT_NAME": "STARLINK-30802",
    "OBJECT_ID": "23166A",
    "EPOCH": "2025-11-11T06:23:08.543040",
    "MEAN_MOTION": 15.30175978,
    "ECCENTRICITY": 0.0001058,
    "INCLINATION": 53.1623,
    "RA_OF_ASC_NODE": 49.9821,
    "ARG_OF_PERICENTER": 100.373,
    "MEAN_ANOMALY": 259.739,
    "EPHEMERIS_TYPE": 0,
    "CLASSIFICATION_TYPE": "U",
    "NORAD_CAT_ID": 58150,
    "ELEMENT_SET_NO": 999,
    "REV_AT_EPOCH": 11504,
    "BSTAR": 0.00021533,
    "MEAN_MOTION_DOT": 6.019e-05,
    "MEAN_MOTION_DDOT": 0.0,
    "TLE_LINE1": "1 58150U 23166A   25315.26607110  .00006019  00000+0  21533-3 0  9998",
    "TLE_LINE2": "2 58150  53.1623  49.9821 0001058 100.3730 259.7390 15.30175978115044",
    "COMMENT": "Grouped by shell and plane from TLE"
  },
  {
    "OBJECT_NAME": "STARLINK-30834",
    "OBJECT_ID": "23166B",
    "EPOCH": "2025-11-11T06:29:10.580640",
    "MEAN_MOTION": 15.30228199,
    "ECCENTRICITY": 0.0001838,
    "INCLINATION": 53.1604,
    "RA_OF_ASC_NODE": 49.8026,
    "ARG_OF_PERICENTER": 73.2729,
    "MEAN_ANOMALY": 286.8474,
    "EPHEMERIS_TYPE": 0,
    "CLASSIFICATION_TYPE": "U",
    "NORAD_CAT_ID": 58151,
    "ELEMENT_SET_NO": 999,
    "REV_AT_EPOCH": 11504,
    "BSTAR": 0.0012409,
    "MEAN_MOTION_DOT": 0.00036606,
    "MEAN_MOTION_DDOT": 0.0,
    "TLE_LINE1": "1 58151U 23166B   25315.27026135  .00036606  00000+0  12409-2 0  9998",
    "TLE_LINE2": "2 58151  53.1604  49.8026 0001838  73.2729 286.8474 15.30228199115040",
    "COMMENT": "Grouped by shell and plane from TLE"
  },
  {
    "OBJECT_NAME": "STARLINK-30833",
    "OBJECT_ID": "23166C",
    "EPOCH": "2025-11-11T06:20:06.038592",
    "MEAN_MOTION": 15.301948,
    "ECCENTRICITY": 0.0001417,
    "INCLINATION": 53.164,
    "RA_OF_ASC_NODE": 49.969,
    "ARG_OF_PERICENTER": 80.0423,
    "MEAN_ANOMALY": 280.0738,
    "EPHEMERIS_TYPE": 0,
    "CLASSIFICATION_TYPE": "U",
    "NORAD_CAT_ID": 58152,
    "ELEMENT_SET_NO": 999,
    "REV_AT_EPOCH": 11504,
    "BSTAR": 7.9094e-05,
    "MEAN_MOTION_DOT": 1.984e-05,
    "MEAN_MOTION_DDOT": 0.0,
    "TLE_LINE1": "1 58152U 23166C   25315.26395878  .00001984  00000+0  79094-4 0  9997",
    "TLE_LINE2": "2 58152  53.1640  49.9690 0001417  80.0423 280.0738 15.30194800115049",
    "COMMENT": "Grouped by shell and plane from TLE"
  },
  {
    "OBJECT_NAME": "STARLINK-30831",
    "OBJECT_ID": "23166D",
    "EPOCH": "2025-11-11T07:29:51.175968",
    "MEAN_MOTION": 15.30197796,
    "ECCENTRICITY": 8.53e-05,
    "INCLINATION": 53.1623,
    "RA_OF_ASC_NODE": 49.5813,
    "ARG_OF_PERICENTER": 33.777,
    "MEAN_ANOMALY": 326.3285,
    "EPHEMERIS_TYPE": 0,
    "CLASSIFICATION_TYPE": "U",
    "NORAD_CAT_ID": 58153,
    "ELEMENT_SET_NO": 999,
    "REV_AT_EPOCH": 11505,
    "BSTAR": 2.5175e-05,
    "MEAN_MOTION_DOT": 3.87e-06,
    "MEAN_MOTION_DDOT": 0.0,
    "TLE_LINE1": "1 58153U 23166D   25315.31239787  .00000387  00000+0  25175-4 0  9997",
    "TLE_LINE2": "2 58153  53.1623  49.5813 0000853  33.7770 326.3285 15.30197796115056",
    "COMMENT": "Grouped by shell and plane from TLE"
  },
  {
    "OBJECT_NAME": "STARLINK-30797",
    "OBJECT_ID": "23166E",
    "EPOCH": "2025-11-11T06:33:43.634880",
    "MEAN_MOTION": 15.30204674,
    "ECCENTRICITY": 0.0001174,
    "INCLINATION": 53.1628,
    "RA_OF_ASC_NODE": 49.8179,
    "ARG_OF_PERICENTER": 71.9838,
    "MEAN_ANOMALY": 288.1291,
    "EPHEMERIS_TYPE": 0,
    "CLASSIFICATION_TYPE": "U",
    "NORAD_CAT_ID": 58154,
    "ELEMENT_SET_NO": 999,
    "REV_AT_EPOCH": 11489,
    "BSTAR": 8.3139e-05,
    "MEAN_MOTION_DOT": 2.104e-05,
    "MEAN_MOTION_DDOT": 0.0,
    "TLE_LINE1": "1 58154U 23166E   25315.27342170  .00002104  00000+0  83139-4 0  9997",
    "TLE_LINE2": "2 58154  53.1628  49.8179 0001174  71.9838 288.1291 15.30204674114893",
    "COMMENT": "Grouped by shell and plane from TLE"
  }
]